[{"OBJECT_NAME":"XW-3 (CAS-9)","OBJECT_ID":"2021-131B","EPOCH":"2026-03-09T23:45:34.750656","MEAN_MOTION":14.41251922,"ECCENTRICITY":0.00048592,"INCLINATION":98.4957,"RA_OF_ASC_NODE":161.9431,"ARG_OF_PERICENTER":49.1215,"MEAN_ANOMALY":311.0395,"EPHEMERIS_TYPE":0,"CLASSIFICATION_TYPE":"U","NORAD_CAT_ID":50466,"ELEMENT_SET_NO":999,"REV_AT_EPOCH":22082,"BSTAR":0.00025329897,"MEAN_MOTION_DOT":7.74e-6,"MEAN_MOTION_DDOT":0},{"OBJECT_NAME":"FENGYUN 1C DEB","OBJECT_ID":"1999-025VE","EPOCH":"2026-03-09T17:29:02.867424","MEAN_MOTION":14.37701341,"ECCENTRICITY":0.00573671,"INCLINATION":98.9429,"RA_OF_ASC_NODE":2.5083,"ARG_OF_PERICENTER":320.3006,"MEAN_ANOMALY":101.0341,"EPHEMERIS_TYPE":0,"CLASSIFICATION_TYPE":"U","NORAD_CAT_ID":30197,"ELEMENT_SET_NO":999,"REV_AT_EPOCH":99736,"BSTAR":0.0010395922,"MEAN_MOTION_DOT":3.139e-5,"MEAN_MOTION_DDOT":0}]
